IRIDIUM 155             
1 43573U 18061E   21364.10918494  .00000158  00000+0  49214-4 0  9997
2 43573  86.3963  17.9213 0001753  88.2145 271.9252 14.34221077179710
IRIDIUM 154             
1 43574U 18061F   21364.50877890  .00000160  00000+0  50078-4 0  9999
2 43574  86.3968  17.8098 0002419  88.9685 271.1788 14.34219211179827
IRIDIUM 163             
1 43575U 18061G   21364.55952123  .00000151  00000+0  46809-4 0  9995
2 43575  86.3965  17.7537 0002377 101.7866 258.3597 14.34215856179804
IRIDIUM 156             
1 43576U 18061H   21364.60390218  .00000149  00000+0  46297-4 0  9991
2 43576  86.3965  17.7404 0001982  99.5838 260.5582 14.34222313179807
IRIDIUM 164             
1 43577U 18061J   21364.51512614  .00000160  00000+0  50225-4 0  9997
2 43577  86.3966  17.7930 0002415  92.7345 267.4127 14.34216398179833
IRIDIUM 159             
1 43578U 18061K   21364.55318066  .00000153  00000+0  47524-4 0  9997
2 43578  86.3964  17.7482 0002358  90.5813 269.5653 14.34216720179809
IRIDIUM 180             
1 43922U 19002A   21364.41312612  .00000129  00000+0  39082-4 0  9995
2 43922  86.3969 314.6749 0002960  91.1321 269.0214 14.34213939155397
IRIDIUM 176             
1 43923U 19002B   21364.36134984  .00000448  00000+0  67199-4 0  9998
2 43923  86.6104 314.7311 0002348  82.2259 277.9225 14.72265033159454
IRIDIUM 168             
1 43924U 19002C   21364.40678492  .00000134  00000+0  40803-4 0  9996
2 43924  86.3972 314.7087 0002404  84.4284 275.7185 14.34219459155377
IRIDIUM 173             
1 43925U 19002D   21364.39409627  .00000138  00000+0  42215-4 0  9990
2 43925  86.4001 314.6687 0002978  78.6019 281.5512 14.34201818155351
IRIDIUM 169             
1 43926U 19002E   21364.49090571  .00000168  00000+0  48363-4 0  9999
2 43926  86.4225 346.2305 0003449 331.5691  28.5319 14.38616920155924
IRIDIUM 172             
1 43927U 19002F   21364.38777130  .00000139  00000+0  42563-4 0  9995
2 43927  86.3968 314.6748 0002437  86.4842 273.6633 14.34216289155368
IRIDIUM 175             
1 43928U 19002G   21364.35514107  .00000451  00000+0  67606-4 0  9998
2 43928  86.6106 314.5591 0002765  92.3205 267.8329 14.72264641159441
IRIDIUM 171             
1 43929U 19002H   21364.36874178  .00000138  00000+0  42222-4 0  9996
2 43929  86.3979 314.8082 0002385  83.6066 276.5401 14.34217722155351
IRIDIUM 170             
1 43930U 19002J   21364.36755646  .00000441  00000+0  66054-4 0  9992
2 43930  86.6104 314.7344 0002587  86.6093 273.5420 14.72264449159467
IRIDIUM 167             
1 43931U 19002K   21364.36239265  .00000142  00000+0  43495-4 0  9999
2 43931  86.3970 314.6935 0002786  87.1446 273.0069 14.34220595155350
